#aV2023 11  5  0  0  0.00000000     288 DD+AD WGS84 FIT  NGA
## 2287      0.00000000   300.00000000 60253 0.0000000000000
+   32     1  2  3  4  5  6  7  8  9 10 11 12 13 14 15 16 17
+         18 19 20 21 22 23 24 25 26 27 28 29 30 31 32  0  0
+          0  0  0  0  0  0  0  0  0  0  0  0  0  0  0  0  0
+          0  0  0  0  0  0  0  0  0  0  0  0  0  0  0  0  0
+          0  0  0  0  0  0  0  0  0  0  0  0  0  0  0  0  0
++         2  2  2  2  2  2  2  2  2  2  2  2  2  2  2  2  2
++         2  2  2  2  2  2  2  2  2  2  2  2  2  2  2  0  0
++         0  0  0  0  0  0  0  0  0  0  0  0  0  0  0  0  0
++         0  0  0  0  0  0  0  0  0  0  0  0  0  0  0  0  0
++         0  0  0  0  0  0  0  0  0  0  0  0  0  0  0  0  0
%c cc cc ccc ccc cccc cccc cccc cccc ccccc ccccc ccccc ccccc
%c cc cc ccc ccc cccc cccc cccc cccc ccccc ccccc ccccc ccccc
%f  0.0000000  0.000000000  0.00000000000  0.000000000000000
%f  0.0000000  0.000000000  0.00000000000  0.000000000000000
%i    0    0    0    0      0      0      0      0         0
%i    0    0    0    0      0      0      0      0         0
/*      NGA, ST. LOUIS,MO.                                  
/*   EPHEMERIS COMPUTED FROM 2 DAYS OF DATA                 
/*   EPOCHA v8 SMOOTHER                                     
/*   G2139 IERS2010 SATIGS SATAPC                           
*  2023 11  5 13 20  0.00000000
P  1 -14554.920693  21986.628818   -786.579001    163.227755                    
V  1  -2103.295698   -738.085882  32612.909202     -0.001111                    
P  2 -16397.571976  19684.484156   7113.187995   -532.945979                    
V  2   1825.735110  -8587.974544  30308.008976      0.049379                    
P  3 -13179.079324  12310.748810 -19605.484388    -34.195692                    
V  3 -24450.511552  -2552.354186  15048.373052      0.247242                    
P  4  -4438.969703  19469.335367 -17440.183644    204.477874                    
V  4 -10789.286160 -19482.704106 -19119.851935      0.105486                    
P  5  24130.017063  -6041.476194   9264.220664   -149.222278                    
V  5  11948.209470   2465.231023 -28858.216430     -0.014378                    
P  6  13134.904465   6480.483137 -22093.298689    513.741901                    
V  6 -15704.032504  23340.073476  -2390.338917     -0.095222                    
P  7  -1134.123363  21675.578223  15452.924427     21.451196                    
V  7 -12500.230539  14510.244377 -22424.062748     -0.099977                    
P  8 -10960.352142  11309.835752  21257.233602   -150.647751                    
V  8 -13548.519407 -23657.206416   5983.375779     -0.017614                    
P  9   5031.870726  24201.062265  -9734.207550    -11.892562                    
V  9  -8082.325878  -9592.685828 -28338.563482      0.111013                    
P 10 -19457.186225 -11048.035128  14751.755753    -60.188783                    
V 10  18280.200627   -258.318943  23907.335690     -0.014766                    
P 11  19060.602278  -5324.812857 -17667.139942   -446.912755                    
V 11 -12024.510025  19062.658221 -18746.850909     -0.165830                    
P 12  15713.836688 -10981.730420 -18629.069392   -443.697831                    
V 12  22727.154486   4384.226392  16908.464175     -0.041275                    
P 13  15286.114901   -804.795093  21525.797111    591.950458                    
V 13   8528.684433  26417.253476  -4813.171793      0.041380                    
P 14  16058.617029  13354.762183  16530.539980    234.587935                    
V 14 -21008.910603    112.357722  20174.235075      0.108596                    
P 15   8965.061394 -13617.566066  20444.370085     94.129566                    
V 15  16417.200682  21742.997818   7336.217314      0.037386                    
P 16 -26372.908743   -837.032894   4406.563696   -427.319532                    
V 16  -5508.595318  -3173.504534 -30877.088994      0.064695                    
P 17  12883.989204  22631.580433  -4421.565562    723.490642                    
V 17     32.059533   6697.654552  31417.491926     -0.002272                    
P 18    637.560119 -20706.114734  16526.180825   -470.257196                    
V 18  13295.091907 -16349.367243 -21188.702918     -0.111474                    
P 19  15947.120078  17104.357846 -13108.148760    394.739630                    
V 19   4045.866788  15758.710075  25532.085674      0.052129                    
P 20  26261.978671   -719.215297  -3099.078823    403.182691                    
V 20  -3630.038237   3688.414489 -31330.789111     -0.019382                    
P 21 -17314.431216  16908.096470  10294.869153    145.050967                    
V 21   3341.746120 -12571.377271  28547.039047     -0.009637                    
P 22  20981.398675  11445.821296  11724.564369     89.545713                    
V 22 -14501.059915    231.931198  27031.299374     -0.070596                    
P 23  -6962.549269 -14531.655871  21159.900799     93.920373                    
V 23  26761.753804    289.022831   8830.495340      0.061782                    
P 24  15134.193046 -20955.072064   4636.751575   -363.943868                    
V 24    459.912172   7589.908431  30664.099417     -0.092224                    
P 25   1635.814907 -15484.762108 -21832.789445    476.032230                    
V 25  26961.695895   1459.290599   1268.250903      0.017065                    
P 26 -25806.105989  -4045.290161  -5909.473931    218.699622                    
V 26   7250.502278  -3325.417154 -29693.825797     -0.025154                    
P 27 -17038.681861  -2972.016416  20014.719311    -65.640412                    
V 27 -10874.007099 -23476.106536 -12174.063699     -0.054357                    
P 28 -12577.276503  -8576.419784 -21790.728214    -39.592936                    
V 28  14504.701584 -23487.547261    873.964755     -0.080251                    
P 29  -2698.824910 -24459.529588  -9903.934672   -610.232376                    
V 29   6773.379476  10767.725023 -28663.423064     -0.000047                    
P 30   7700.519092  15389.646002  20290.525731   -471.430221                    
V 30 -15321.493365  20616.995112 -10144.920611      0.039284                    
P 31 -17690.551077    492.044883 -20123.826159   -225.435742                    
V 31  13504.224129 -21081.607353 -12099.754649     -0.004079                    
P 32 -16203.343430 -19582.600997  -7881.836033   -582.018957                    
V 32  -2399.024749 -10230.437477  29459.317845     -0.047205                    
EOF
